{
  "type": "FeatureCollection",
  "features": [
    {
      "type": "Feature",
      "properties": {
        "norad_id": 66527,
        "name": "STARLINK-35935",
        "group": "last-30-days",
        "lat": 12.65643383950635,
        "lon": 99.77610259972403,
        "alt_km": 379.92542021010377,
        "timestamp": "2025-12-07T07:31:35.086044+00:00",
        "meta_object_name": "STARLINK-35935",
        "meta_object_id": "2025-265M",
        "meta_epoch": "2025-12-06T22:00:01.999584",
        "meta_mean_motion": 15.63723459,
        "meta_eccentricity": 0.00015633,
        "meta_inclination": 43.0001,
        "meta_ra_of_asc_node": 88.1966,
        "meta_arg_of_pericenter": 278.4149,
        "meta_mean_anomaly": 24.5743,
        "meta_ephemeris_type": 0,
        "meta_classification_type": "U",
        "meta_norad_cat_id": 66527,
        "meta_element_set_no": 999,
        "meta_rev_at_epoch": 405,
        "meta_bstar": -0.023705241,
        "meta_mean_motion_dot": -0.02001111,
        "meta_mean_motion_ddot": 0,
        "tle_line1": "1 66527U 25265M   25340.91668981 -.02001111  00000+0 -23705-1 0  9993",
        "tle_line2": "2 66527  43.0001  88.1966 0001563 278.4149  24.5743 15.63723459  4053"
      },
      "geometry": {
        "type": "Point",
        "coordinates": [
          99.77610259972403,
          12.65643383950635
        ]
      }
    },
    {
      "type": "Feature",
      "properties": {
        "norad_id": 66528,
        "name": "STARLINK-35928",
        "group": "last-30-days",
        "lat": 13.921970420450114,
        "lon": 101.2534581582208,
        "alt_km": 379.7770937459918,
        "timestamp": "2025-12-07T07:31:35.086054+00:00",
        "meta_object_name": "STARLINK-35928",
        "meta_object_id": "2025-265N",
        "meta_epoch": "2025-12-06T22:00:01.999584",
        "meta_mean_motion": 15.63719757,
        "meta_eccentricity": 0.00015794,
        "meta_inclination": 43.0002,
        "meta_ra_of_asc_node": 88.1916,
        "meta_arg_of_pericenter": 278.5665,
        "meta_mean_anomaly": 26.3439,
        "meta_ephemeris_type": 0,
        "meta_classification_type": "U",
        "meta_norad_cat_id": 66528,
        "meta_element_set_no": 999,
        "meta_rev_at_epoch": 405,
        "meta_bstar": -0.023672318,
        "meta_mean_motion_dot": -0.01998425,
        "meta_mean_motion_ddot": 0,
        "tle_line1": "1 66528U 25265N   25340.91668981 -.01998425  00000+0 -23672-1 0  9999",
        "tle_line2": "2 66528  43.0002  88.1916 0001579 278.5665  26.3439 15.63719757  4059"
      },
      "geometry": {
        "type": "Point",
        "coordinates": [
          101.2534581582208,
          13.921970420450114
        ]
      }
    },
    {
      "type": "Feature",
      "properties": {
        "norad_id": 66529,
        "name": "STARLINK-35933",
        "group": "last-30-days",
        "lat": 15.178371283679057,
        "lon": 102.74681699700685,
        "alt_km": 379.64804966833435,
        "timestamp": "2025-12-07T07:31:35.086064+00:00",
        "meta_object_name": "STARLINK-35933",
        "meta_object_id": "2025-265P",
        "meta_epoch": "2025-12-06T22:00:01.999584",
        "meta_mean_motion": 15.63720956,
        "meta_eccentricity": 0.00016211,
        "meta_inclination": 43.0002,
        "meta_ra_of_asc_node": 88.1864,
        "meta_arg_of_pericenter": 278.067,
        "meta_mean_anomaly": 28.7603,
        "meta_ephemeris_type": 0,
        "meta_classification_type": "U",
        "meta_norad_cat_id": 66529,
        "meta_element_set_no": 999,
        "meta_rev_at_epoch": 405,
        "meta_bstar": -0.023694876,
        "meta_mean_motion_dot": -0.02000213,
        "meta_mean_motion_ddot": 0,
        "tle_line1": "1 66529U 25265P   25340.91668981 -.02000213  00000+0 -23695-1 0  9995",
        "tle_line2": "2 66529  43.0002  88.1864 0001621 278.0670  28.7603 15.63720956  4053"
      },
      "geometry": {
        "type": "Point",
        "coordinates": [
          102.74681699700685,
          15.178371283679057
        ]
      }
    },
    {
      "type": "Feature",
      "properties": {
        "norad_id": 66530,
        "name": "STARLINK-35961",
        "group": "last-30-days",
        "lat": 16.42348127537622,
        "lon": 104.25748021488094,
        "alt_km": 379.4590224913627,
        "timestamp": "2025-12-07T07:31:35.086074+00:00",
        "meta_object_name": "STARLINK-35961",
        "meta_object_id": "2025-265Q",
        "meta_epoch": "2025-12-06T22:00:01.999584",
        "meta_mean_motion": 15.63718834,
        "meta_eccentricity": 0.00016164,
        "meta_inclination": 43.0002,
        "meta_ra_of_asc_node": 88.1822,
        "meta_arg_of_pericenter": 279.265,
        "meta_mean_anomaly": 29.4777,
        "meta_ephemeris_type": 0,
        "meta_classification_type": "U",
        "meta_norad_cat_id": 66530,
        "meta_element_set_no": 999,
        "meta_rev_at_epoch": 405,
        "meta_bstar": -0.023630784,
        "meta_mean_motion_dot": -0.01995312,
        "meta_mean_motion_ddot": 0,
        "tle_line1": "1 66530U 25265Q   25340.91668981 -.01995312  00000+0 -23631-1 0  9999",
        "tle_line2": "2 66530  43.0002  88.1822 0001616 279.2650  29.4777 15.63718834  4056"
      },
      "geometry": {
        "type": "Point",
        "coordinates": [
          104.25748021488094,
          16.42348127537622
        ]
      }
    },
    {
      "type": "Feature",
      "properties": {
        "norad_id": 66531,
        "name": "STARLINK-35960",
        "group": "last-30-days",
        "lat": 17.65896347664869,
        "lon": 105.78804951692189,
        "alt_km": 379.4101760282774,
        "timestamp": "2025-12-07T07:31:35.086085+00:00",
        "meta_object_name": "STARLINK-35960",
        "meta_object_id": "2025-265R",
        "meta_epoch": "2025-12-06T22:00:01.999584",
        "meta_mean_motion": 15.63718285,
        "meta_eccentricity": 0.00015468,
        "meta_inclination": 43.0003,
        "meta_ra_of_asc_node": 88.1768,
        "meta_arg_of_pericenter": 274.6773,
        "meta_mean_anomaly": 35.9848,
        "meta_ephemeris_type": 0,
        "meta_classification_type": "U",
        "meta_norad_cat_id": 66531,
        "meta_element_set_no": 999,
        "meta_rev_at_epoch": 405,
        "meta_bstar": -0.023622163,
        "meta_mean_motion_dot": -0.01994581,
        "meta_mean_motion_ddot": 0,
        "tle_line1": "1 66531U 25265R   25340.91668981 -.01994581  00000+0 -23622-1 0  9997",
        "tle_line2": "2 66531  43.0003  88.1768 0001546 274.6773  35.9848 15.63718285  4055"
      },
      "geometry": {
        "type": "Point",
        "coordinates": [
          105.78804951692189,
          17.65896347664869
        ]
      }
    },
    {
      "type": "Feature",
      "properties": {
        "norad_id": 66532,
        "name": "STARLINK-35914",
        "group": "last-30-days",
        "lat": 18.881827842972857,
        "lon": 107.34005616694209,
        "alt_km": 379.16751495067,
        "timestamp": "2025-12-07T07:31:35.086095+00:00",
        "meta_object_name": "STARLINK-35914",
        "meta_object_id": "2025-265S",
        "meta_epoch": "2025-12-06T22:00:01.999584",
        "meta_mean_motion": 15.6371803,
        "meta_eccentricity": 0.00016046,
        "meta_inclination": 43.0001,
        "meta_ra_of_asc_node": 88.1722,
        "meta_arg_of_pericenter": 279.0645,
        "meta_mean_anomaly": 33.5152,
        "meta_ephemeris_type": 0,
        "meta_classification_type": "U",
        "meta_norad_cat_id": 66532,
        "meta_element_set_no": 999,
        "meta_rev_at_epoch": 405,
        "meta_bstar": -0.023646697,
        "meta_mean_motion_dot": -0.01996426,
        "meta_mean_motion_ddot": 0,
        "tle_line1": "1 66532U 25265S   25340.91668981 -.01996426  00000+0 -23647-1 0  9995",
        "tle_line2": "2 66532  43.0001  88.1722 0001604 279.0645  33.5152 15.63718030  4056"
      },
      "geometry": {
        "type": "Point",
        "coordinates": [
          107.34005616694209,
          18.881827842972857
        ]
      }
    },
    {
      "type": "Feature",
      "properties": {
        "norad_id": 66533,
        "name": "STARLINK-35707",
        "group": "last-30-days",
        "lat": 20.09187429668739,
        "lon": 108.91530481731324,
        "alt_km": 379.0463352685092,
        "timestamp": "2025-12-07T07:31:35.086105+00:00",
        "meta_object_name": "STARLINK-35707",
        "meta_object_id": "2025-265T",
        "meta_epoch": "2025-12-06T22:00:01.999584",
        "meta_mean_motion": 15.63719485,
        "meta_eccentricity": 0.00016717,
        "meta_inclination": 43.0001,
        "meta_ra_of_asc_node": 88.1678,
        "meta_arg_of_pericenter": 278.528,
        "meta_mean_anomaly": 35.9668,
        "meta_ephemeris_type": 0,
        "meta_classification_type": "U",
        "meta_norad_cat_id": 66533,
        "meta_element_set_no": 999,
        "meta_rev_at_epoch": 405,
        "meta_bstar": -0.023653685,
        "meta_mean_motion_dot": -0.01997098,
        "meta_mean_motion_ddot": 0,
        "tle_line1": "1 66533U 25265T   25340.91668981 -.01997098  00000+0 -23654-1 0  9990",
        "tle_line2": "2 66533  43.0001  88.1678 0001671 278.5280  35.9668 15.63719485  4053"
      },
      "geometry": {
        "type": "Point",
        "coordinates": [
          108.91530481731324,
          20.09187429668739
        ]
      }
    }
  ]
}